24793,IRIDIUM 7,1997,100.35,-1.0,-,86.39,Inactive,0,LEO,USA,USA,Unknown,Unknown,Unknown,1 24793U 97020B   23289.34945782  .00000862  00000+0  29654-3 0  9993,2 24793  86.3934  72.3234 0001980  84.8298 275.3124 14.34933369384631,14.34933369,0.000198,LEO
24795,IRIDIUM 5,1997,96.97,-1.0,-,86.4,Inactive,0,LEO,USA,USA,Unknown,Unknown,Unknown,1 24795U 97020D   23289.15535500  .00009450  00000+0  95027-3 0  9996,2 24795  86.3992   2.5377 0129021 150.1933 210.6724 14.85009678394700,14.85009678,0.0129021,LEO
24796,IRIDIUM 4,1997,100.29,-1.0,-,86.39,Inactive,0,LEO,USA,USA,Unknown,Unknown,Unknown,1 24796U 97020E   23288.88499199  .00000765  00000+0  25768-3 0  9994,2 24796  86.3935  69.7995 0002194  88.1730 271.9718 14.35839977384862,14.35839977,0.0002194,LEO
24836,IRIDIUM 914,1997,100.02,-1.0,-,86.39,Inactive,0,LEO,Kazakhstan,USA,Unknown,Unknown,Unknown,1 24836U 97030A   23288.94320555  .00001114  00000+0  35016-3 0  9992,2 24836  86.3894  80.1648 0003934  81.1961 278.9683 14.39643610519291,14.3964361,0.0003934,LEO
24841,IRIDIUM 16,1997,100.17,-1.0,-,86.4,Inactive,0,LEO,Kazakhstan,USA,Unknown,Unknown,Unknown,1 24841U 97030F   23288.90707775  .00000961  00000+0  31456-3 0  9990,2 24841  86.3982 101.5422 0000073 319.3042  40.8150 14.37533781379294,14.37533781,7.3e-06,LEO
24842,IRIDIUM 911,1997,99.58,-1.0,-,86.44,Inactive,0,LEO,Kazakhstan,USA,Unknown,Unknown,Unknown,1 24842U 97030G   23288.90490716  .00001245  00000+0  34337-3 0  9992,2 24842  86.4408 100.8721 0013551 338.9738  21.0905 14.46056589386841,14.46056589,0.0013551,LEO
24870,IRIDIUM 17,1997,100.23,-1.0,-,86.39,Inactive,0,LEO,USA,USA,Unknown,Unknown,Unknown,1 24870U 97034B   23289.55715983  .00000734  00000+0  24294-3 0  9998,2 24870  86.3940 130.9406 0001814 138.0259 222.1077 14.36631799376026,14.36631799,0.0001814,LEO
24871,IRIDIUM 920,1997,99.98,-1.0,-,86.39,Inactive,0,LEO,USA,USA,Unknown,Unknown,Unknown,1 24871U 97034C   23288.94694972  .00000887  00000+0  27356-3 0  9996,2 24871  86.3928 111.8488 0009768 299.4614  60.5610 14.40346491378705,14.40346491,0.0009768,LEO
